IRIDIUM 26              
1 24903U 97043A   25341.68655254  .00000697  00000+0  22723-3 0  9997
2 24903  86.3965  37.6869 0002024  98.2626 261.8802 14.37321588481661
IRIDIUM 22              
1 24907U 97043E   25341.90000658  .00000570  00000+0  18929-3 0  9991
2 24907  86.3968  41.2860 0002204  97.0255 263.1193 14.36116567481706
DUMMY MASS 1            
1 24925U 97048A   25341.69196523  .00000806  00000+0  86613-4 0  9997
2 24925  86.3349  55.0423 0004466 241.5112 118.5664 14.87176436530918
DUMMY MASS 2            
1 24926U 97048B   25341.95228268  .00000726  00000+0  78175-4 0  9994
2 24926  86.3349  56.5619 0005052 258.6297 101.4360 14.86926916530725
IRIDIUM 29              
1 24944U 97051A   25341.79029724  .00000842  00000+0  27946-3 0  9994
2 24944  86.3955  71.0215 0002283  93.7374 266.4084 14.36656338478199
IRIDIUM 33              
1 24946U 97051C   25341.96494012  .00000590  00000+0  20032-3 0  9990
2 24946  86.3870  70.2257 0006520 218.2008 141.8727 14.35031792477661
IRIDIUM 28              
1 24948U 97051E   25341.79360954  .00000778  00000+0  25330-3 0  9994
2 24948  86.3960  68.4363 0001739 107.2863 252.8525 14.37556392478786
IRIDIUM 36              
1 24967U 97056C   25341.86906043  .00000756  00000+0  24472-3 0  9995
2 24967  86.3956 100.0323 0002006 101.8545 258.2877 14.37776691477174
